{
  "type": "FeatureCollection",
  "features": [
    {
      "type": "Feature",
      "properties": {
        "norad_id": 66816,
        "name": "STARLINK-36098",
        "group": "last-30-days",
        "lat": -20.443498498454872,
        "lon": -143.10729141733586,
        "alt_km": 328.0617078567684,
        "timestamp": "2025-12-14T14:39:28.133443+00:00",
        "meta_object_name": "STARLINK-36098",
        "meta_object_id": "2025-278AB",
        "meta_epoch": "2025-12-13T17:35:53.748672",
        "meta_mean_motion": 15.85187847,
        "meta_eccentricity": 0.00059144,
        "meta_inclination": 42.9969,
        "meta_ra_of_asc_node": 245.8692,
        "meta_arg_of_pericenter": 207.8499,
        "meta_mean_anomaly": 152.2058,
        "meta_ephemeris_type": 0,
        "meta_classification_type": "U",
        "meta_norad_cat_id": 66816,
        "meta_element_set_no": 999,
        "meta_rev_at_epoch": 199,
        "meta_bstar": -0.0069954529,
        "meta_mean_motion_dot": -0.01517008,
        "meta_mean_motion_ddot": 0,
        "tle_line1": "1 66816U 25278AB  25347.73326098 -.01517008  00000+0 -69955-2 0  9999",
        "tle_line2": "2 66816  42.9969 245.8692 0005914 207.8499 152.2058 15.85187847  1998"
      },
      "geometry": {
        "type": "Point",
        "coordinates": [
          -143.10729141733586,
          -20.443498498454872
        ]
      }
    },
    {
      "type": "Feature",
      "properties": {
        "norad_id": 66817,
        "name": "STARLINK-35995",
        "group": "last-30-days",
        "lat": -17.691207148434113,
        "lon": -139.55265797546087,
        "alt_km": 331.89743486790303,
        "timestamp": "2025-12-14T14:39:28.133470+00:00",
        "meta_object_name": "STARLINK-35995",
        "meta_object_id": "2025-278AC",
        "meta_epoch": "2025-12-13T23:37:07.027104",
        "meta_mean_motion": 15.84625504,
        "meta_eccentricity": 0.00068164,
        "meta_inclination": 42.9968,
        "meta_ra_of_asc_node": 244.3089,
        "meta_arg_of_pericenter": 250.99,
        "meta_mean_anomaly": 109.0235,
        "meta_ephemeris_type": 0,
        "meta_classification_type": "U",
        "meta_norad_cat_id": 66817,
        "meta_element_set_no": 999,
        "meta_rev_at_epoch": 203,
        "meta_bstar": -0.018039003,
        "meta_mean_motion_dot": -0.03566872,
        "meta_mean_motion_ddot": 0,
        "tle_line1": "1 66817U 25278AC  25347.98410911 -.03566872  00000+0 -18039-1 0  9996",
        "tle_line2": "2 66817  42.9968 244.3089 0006816 250.9900 109.0235 15.84625504  2039"
      },
      "geometry": {
        "type": "Point",
        "coordinates": [
          -139.55265797546087,
          -17.691207148434113
        ]
      }
    },
    {
      "type": "Feature",
      "properties": {
        "norad_id": 66818,
        "name": "STARLINK-35994",
        "group": "last-30-days",
        "lat": -13.874883815511703,
        "lon": -134.92218400176583,
        "alt_km": 314.06514524271915,
        "timestamp": "2025-12-14T14:39:28.133485+00:00",
        "meta_object_name": "STARLINK-35994",
        "meta_object_id": "2025-278AD",
        "meta_epoch": "2025-12-13T23:38:01.238784",
        "meta_mean_motion": 15.86048323,
        "meta_eccentricity": 0.0011339,
        "meta_inclination": 42.998,
        "meta_ra_of_asc_node": 244.3135,
        "meta_arg_of_pericenter": 237.9783,
        "meta_mean_anomaly": 121.9989,
        "meta_ephemeris_type": 0,
        "meta_classification_type": "U",
        "meta_norad_cat_id": 66818,
        "meta_element_set_no": 999,
        "meta_rev_at_epoch": 203,
        "meta_bstar": 0.0016883405,
        "meta_mean_motion_dot": 0.00455118,
        "meta_mean_motion_ddot": 0,
        "tle_line1": "1 66818U 25278AD  25347.98473656  .00455118  00000+0  16883-2 0  9993",
        "tle_line2": "2 66818  42.9980 244.3135 0011339 237.9783 121.9989 15.86048323  2035"
      },
      "geometry": {
        "type": "Point",
        "coordinates": [
          -134.92218400176583,
          -13.874883815511703
        ]
      }
    },
    {
      "type": "Feature",
      "properties": {
        "norad_id": 66819,
        "name": "STARLINK-35989",
        "group": "last-30-days",
        "lat": -8.625671914197733,
        "lon": -128.9386360481758,
        "alt_km": 313.5694107946256,
        "timestamp": "2025-12-14T14:39:28.133496+00:00",
        "meta_object_name": "STARLINK-35989",
        "meta_object_id": "2025-278AE",
        "meta_epoch": "2025-12-13T02:25:59.508480",
        "meta_mean_motion": 15.87984782,
        "meta_eccentricity": 0.00193199,
        "meta_inclination": 42.9981,
        "meta_ra_of_asc_node": 249.7349,
        "meta_arg_of_pericenter": 275.1685,
        "meta_mean_anomaly": 84.6984,
        "meta_ephemeris_type": 0,
        "meta_classification_type": "U",
        "meta_norad_cat_id": 66819,
        "meta_element_set_no": 999,
        "meta_rev_at_epoch": 189,
        "meta_bstar": -0.0055008218,
        "meta_mean_motion_dot": -0.01562027,
        "meta_mean_motion_ddot": 0.00065817872,
        "tle_line1": "1 66819U 25278AE  25347.10138320 -.01562027  65818-3 -55008-2 0  9999",
        "tle_line2": "2 66819  42.9981 249.7349 0019319 275.1685  84.6984 15.87984782  1896"
      },
      "geometry": {
        "type": "Point",
        "coordinates": [
          -128.9386360481758,
          -8.625671914197733
        ]
      }
    },
    {
      "type": "Feature",
      "properties": {
        "norad_id": 66820,
        "name": "KOMPSAT-7",
        "group": "last-30-days",
        "lat": -4.553190366549944,
        "lon": -64.94692316295608,
        "alt_km": 578.1478625832824,
        "timestamp": "2025-12-14T14:39:28.133509+00:00",
        "meta_object_name": "KOMPSAT-7",
        "meta_object_id": "2025-279A",
        "meta_epoch": "2025-12-14T00:15:33.583968",
        "meta_mean_motion": 14.98961739,
        "meta_eccentricity": 0.00087365,
        "meta_inclination": 97.6413,
        "meta_ra_of_asc_node": 293.8524,
        "meta_arg_of_pericenter": 220.6556,
        "meta_mean_anomaly": 139.4015,
        "meta_ephemeris_type": 0,
        "meta_classification_type": "U",
        "meta_norad_cat_id": 66820,
        "meta_element_set_no": 999,
        "meta_rev_at_epoch": 184,
        "meta_bstar": 0.00030886628,
        "meta_mean_motion_dot": 3.683e-05,
        "meta_mean_motion_ddot": 0,
        "tle_line1": "1 66820U 25279A   25348.01080537  .00003683  00000+0  30887-3 0  9991",
        "tle_line2": "2 66820  97.6413 293.8524 0008736 220.6556 139.4015 14.98961739  1840"
      },
      "geometry": {
        "type": "Point",
        "coordinates": [
          -64.94692316295608,
          -4.553190366549944
        ]
      }
    },
    {
      "type": "Feature",
      "properties": {
        "norad_id": 66821,
        "name": "STARLINK-35966",
        "group": "last-30-days",
        "lat": -12.667725343653524,
        "lon": 18.209826501565573,
        "alt_km": 337.1045334289638,
        "timestamp": "2025-12-14T14:39:28.133522+00:00",
        "meta_object_name": "STARLINK-35966",
        "meta_object_id": "2025-280A",
        "meta_epoch": "2025-12-13T19:35:17.807712",
        "meta_mean_motion": 15.77822014,
        "meta_eccentricity": 0.00110294,
        "meta_inclination": 69.992,
        "meta_ra_of_asc_node": 195.7735,
        "meta_arg_of_pericenter": 283.3749,
        "meta_mean_anomaly": 76.6221,
        "meta_ephemeris_type": 0,
        "meta_classification_type": "U",
        "meta_norad_cat_id": 66821,
        "meta_element_set_no": 999,
        "meta_rev_at_epoch": 309,
        "meta_bstar": 0.0041663431,
        "meta_mean_motion_dot": 0.00770505,
        "meta_mean_motion_ddot": 0,
        "tle_line1": "1 66821U 25280A   25347.81617833  .00770505  00000+0  41663-2 0  9993",
        "tle_line2": "2 66821  69.9920 195.7735 0011029 283.3749  76.6221 15.77822014  3099"
      },
      "geometry": {
        "type": "Point",
        "coordinates": [
          18.209826501565573,
          -12.667725343653524
        ]
      }
    },
    {
      "type": "Feature",
      "properties": {
        "norad_id": 66822,
        "name": "STARLINK-35958",
        "group": "last-30-days",
        "lat": -7.0304486435344815,
        "lon": 16.09592598585519,
        "alt_km": 352.44481519994133,
        "timestamp": "2025-12-14T14:39:28.133532+00:00",
        "meta_object_name": "STARLINK-35958",
        "meta_object_id": "2025-280B",
        "meta_epoch": "2025-12-13T19:34:40.533024",
        "meta_mean_motion": 15.76857205,
        "meta_eccentricity": 0.00092883,
        "meta_inclination": 69.9929,
        "meta_ra_of_asc_node": 195.7731,
        "meta_arg_of_pericenter": 292.9803,
        "meta_mean_anomaly": 67.0416,
        "meta_ephemeris_type": 0,
        "meta_classification_type": "U",
        "meta_norad_cat_id": 66822,
        "meta_element_set_no": 999,
        "meta_rev_at_epoch": 309,
        "meta_bstar": -0.011654885,
        "meta_mean_motion_dot": -0.0164749,
        "meta_mean_motion_ddot": 0,
        "tle_line1": "1 66822U 25280B   25347.81574691 -.01647490  00000+0 -11655-1 0  9994",
        "tle_line2": "2 66822  69.9929 195.7731 0009288 292.9803  67.0416 15.76857205  3095"
      },
      "geometry": {
        "type": "Point",
        "coordinates": [
          16.09592598585519,
          -7.0304486435344815
        ]
      }
    }
  ]
}